{
    "links": {
        "self": "http://www.neowsapp.com/rest/v1/neo/3725654?api_key=iIulBulltgU6a56xZRHN4H3l9WmuAYTsLGpBGhQ2"
    },
    "id": "3725654",
    "neo_reference_id": "3725654",
    "name": "(2015 PR56)",
    "designation": "2015 PR56",
    "nasa_jpl_url": "http://ssd.jpl.nasa.gov/sbdb.cgi?sstr=3725654",
    "absolute_magnitude_h": 22.8,
    "estimated_diameter": {
        "kilometers": {
            "estimated_diameter_min": 0.0732073989,
            "estimated_diameter_max": 0.1636967205
        },
        "meters": {
            "estimated_diameter_min": 73.2073989347,
            "estimated_diameter_max": 163.696720474
        },
        "miles": {
            "estimated_diameter_min": 0.0454889547,
            "estimated_diameter_max": 0.1017163949
        },
        "feet": {
            "estimated_diameter_min": 240.181762721,
            "estimated_diameter_max": 537.0627483999
        }
    },
    "is_potentially_hazardous_asteroid": false,
    "close_approach_data": [
        {
            "close_approach_date": "2015-07-28",
            "close_approach_date_full": "2015-Jul-28 06:56",
            "epoch_date_close_approach": 1438066560000,
            "relative_velocity": {
                "kilometers_per_second": "25.9532575394",
                "kilometers_per_hour": "93431.7271420153",
                "miles_per_hour": "58054.8417899928"
            },
            "miss_distance": {
                "astronomical": "0.1377454041",
                "lunar": "53.5829621949",
                "kilometers": "20606419.055649267",
                "miles": "12804235.0609112046"
            },
            "orbiting_body": "Earth"
        },
        {
            "close_approach_date": "2084-12-26",
            "close_approach_date_full": "2084-Dec-26 05:27",
            "epoch_date_close_approach": 3628646820000,
            "relative_velocity": {
                "kilometers_per_second": "25.3752442542",
                "kilometers_per_hour": "91350.8793152856",
                "miles_per_hour": "56761.8838723229"
            },
            "miss_distance": {
                "astronomical": "0.1402618859",
                "lunar": "54.5618736151",
                "kilometers": "20982879.372823033",
                "miles": "13038156.6549145354"
            },
            "orbiting_body": "Earth"
        }
    ],
    "orbital_data": {
        "orbit_id": "10",
        "orbit_determination_date": "2017-04-06 08:32:33",
        "first_observation_date": "2015-08-06",
        "last_observation_date": "2015-08-23",
        "data_arc_in_days": 17,
        "observations_used": 46,
        "orbit_uncertainty": "8",
        "minimum_orbit_intersection": ".0458263",
        "jupiter_tisserand_invariant": "2.822",
        "epoch_osculation": "2457248.5",
        "eccentricity": ".8573982866552214",
        "semi_major_axis": "2.451430071248243",
        "inclination": "7.838415945135204",
        "ascending_node_longitude": "149.7747347769902",
        "orbital_period": "1401.934394488525",
        "perihelion_distance": ".349578128304912",
        "perihelion_argument": "45.74839440792257",
        "aphelion_distance": "4.553282014191574",
        "perihelion_time": "2457187.139723286080",
        "mean_anomaly": "15.75658583158615",
        "mean_motion": ".2567880504360839",
        "equinox": "J2000",
        "orbit_class": {
            "orbit_class_type": "APO",
            "orbit_class_description": "Near-Earth asteroid orbits which cross the Earth’s orbit similar to that of 1862 Apollo",
            "orbit_class_range": "a (semi-major axis) > 1.0 AU; q (perihelion) < 1.017 AU"
        }
    },
    "is_sentry_object": false
}